{
    "data": [
        {
            "id": 1,
            "name": "Nicolas-Lebsack",
            "surface": 4193,
            "carbon_emission": 172256,
            "address": "08 Vera Pass",
            "postcode": 15489,
            "city": "Saint John’s"
        },
        {
            "id": 2,
            "name": "Rosenbaum-Conn",
            "surface": 3966,
            "carbon_emission": 180683,
            "address": "91 Thompson Crossing",
            "postcode": 15489,
            "city": "Xinxu"
        },
        {
            "id": 3,
            "name": "Erdman LLC",
            "surface": 4526,
            "carbon_emission": 464710,
            "address": "33749 Goodland Junction",
            "postcode": "141540",
            "city": "Povarovo"
        },
        {
            "id": 4,
            "name": "Schuppe LLC",
            "surface": 3191,
            "carbon_emission": 153715,
            "address": "9 Homewood Crossing",
            "postcode": "473 01",
            "city": "Nový Bor"
        },
        {
            "id": 5,
            "name": "Schaden LLC",
            "surface": 2924,
            "carbon_emission": 338768,
            "address": "01696 Dawn Circle",
            "postcode": 15489,
            "city": "Shijak"
        },
        {
            "id": 6,
            "name": "Ritchie LLC",
            "surface": 4980,
            "carbon_emission": 438074,
            "address": "204 Erie Junction",
            "postcode": 15489,
            "city": "Goge"
        },
        {
            "id": 7,
            "name": "Sawayn Group",
            "surface": 1762,
            "carbon_emission": 383443,
            "address": "82520 Blackbird Place",
            "postcode": 15489,
            "city": "La Unión"
        },
        {
            "id": 8,
            "name": "Kiehn, Abernathy and Beatty",
            "surface": 1402,
            "carbon_emission": 469991,
            "address": "4105 Waxwing Road",
            "postcode": 15489,
            "city": "Al Aḩmadī"
        },
        {
            "id": 9,
            "name": "Upton, Ratke and Baumbach",
            "surface": 3145,
            "carbon_emission": 421020,
            "address": "434 Steensland Junction",
            "postcode": "601964",
            "city": "Kovrov"
        },
        {
            "id": 10,
            "name": "Ritchie, Botsford and Hartmann",
            "surface": 2924,
            "carbon_emission": 249298,
            "address": "3100 6th Way",
            "postcode": 15489,
            "city": "Néa Karyá"
        },
        {
            "id": 11,
            "name": "Sipes-Walker",
            "surface": 4308,
            "carbon_emission": 396264,
            "address": "851 Hanover Pass",
            "postcode": 15489,
            "city": "Oyan"
        },
        {
            "id": 12,
            "name": "Reichert-Dicki",
            "surface": 1816,
            "carbon_emission": 420088,
            "address": "5028 Buena Vista Way",
            "postcode": "2733",
            "city": "Sinait"
        },
        {
            "id": 13,
            "name": "Mann, Corkery and Schuppe",
            "surface": 1009,
            "carbon_emission": 209336,
            "address": "2 Ohio Avenue",
            "postcode": "68-113",
            "city": "Brzeźnica"
        },
        {
            "id": 14,
            "name": "Ernser, Mante and Fahey",
            "surface": 1076,
            "carbon_emission": 472160,
            "address": "4489 Gale Circle",
            "postcode": "671642",
            "city": "Kurumkan"
        },
        {
            "id": 15,
            "name": "Waelchi Group",
            "surface": 2739,
            "carbon_emission": 154101,
            "address": "4 Grasskamp Lane",
            "postcode": "62430-000",
            "city": "Granja"
        },
        {
            "id": 16,
            "name": "Connelly, Hegmann and Cruickshank",
            "surface": 2926,
            "carbon_emission": 109088,
            "address": "9682 Hayes Plaza",
            "postcode": "48-320",
            "city": "Skoroszyce"
        },
        {
            "id": 17,
            "name": "Upton-Reichel",
            "surface": 1011,
            "carbon_emission": 309403,
            "address": "97 Lien Place",
            "postcode": "2825-453",
            "city": "São João de Caparica"
        },
        {
            "id": 18,
            "name": "Dietrich Group",
            "surface": 1225,
            "carbon_emission": 386041,
            "address": "046 Donald Road",
            "postcode": "8601",
            "city": "Buenavista"
        },
        {
            "id": 19,
            "name": "Jacobs-Lockman",
            "surface": 3107,
            "carbon_emission": 399308,
            "address": "595 1st Park",
            "postcode": "6007",
            "city": "Joroan"
        },
        {
            "id": 20,
            "name": "Spinka, Lemke and Douglas",
            "surface": 1506,
            "carbon_emission": 320403,
            "address": "043 Shopko Circle",
            "postcode": 15489,
            "city": "’Unābah"
        },
        {
            "id": 21,
            "name": "Dickens, Keeling and Bayer",
            "surface": 1391,
            "carbon_emission": 122021,
            "address": "778 Ohio Junction",
            "postcode": "3418",
            "city": "Empedrado"
        },
        {
            "id": 22,
            "name": "McDermott, Bruen and Graham",
            "surface": 3136,
            "carbon_emission": 145741,
            "address": "07 Loeprich Street",
            "postcode": "3119",
            "city": "Tariji"
        },
        {
            "id": 23,
            "name": "Flatley Inc",
            "surface": 3354,
            "carbon_emission": 409788,
            "address": "1 New Castle Center",
            "postcode": 15489,
            "city": "Majin"
        },
        {
            "id": 24,
            "name": "Bergnaum, Schuppe and Skiles",
            "surface": 3520,
            "carbon_emission": 261704,
            "address": "03 Village Pass",
            "postcode": 15489,
            "city": "Ramotswa"
        },
        {
            "id": 25,
            "name": "Zboncak, Kerluke and Jacobson",
            "surface": 1045,
            "carbon_emission": 209885,
            "address": "1633 Spohn Point",
            "postcode": "346647",
            "city": "Krasnomayskiy"
        },
        {
            "id": 26,
            "name": "Hartmann-Corwin",
            "surface": 2708,
            "carbon_emission": 246732,
            "address": "6540 Bayside Drive",
            "postcode": "4023",
            "city": "San Pedro"
        },
        {
            "id": 27,
            "name": "Purdy-Walker",
            "surface": 3892,
            "carbon_emission": 444033,
            "address": "48 Loomis Alley",
            "postcode": "33901",
            "city": "Tampere"
        },
        {
            "id": 28,
            "name": "Veum Group",
            "surface": 4141,
            "carbon_emission": 324827,
            "address": "41924 Brown Road",
            "postcode": "2390",
            "city": "Ravne na Koroškem"
        },
        {
            "id": 29,
            "name": "Hirthe-Green",
            "surface": 1583,
            "carbon_emission": 341591,
            "address": "8002 Laurel Road",
            "postcode": "618146",
            "city": "Osa"
        },
        {
            "id": 30,
            "name": "Schumm Inc",
            "surface": 3204,
            "carbon_emission": 386871,
            "address": "74 Oneill Road",
            "postcode": 15489,
            "city": "Huwei"
        },
        {
            "id": 31,
            "name": "Bogan LLC",
            "surface": 4236,
            "carbon_emission": 186621,
            "address": "6 Lawn Crossing",
            "postcode": "473008",
            "city": "Mompós"
        },
        {
            "id": 32,
            "name": "Rolfson, Wehner and Lang",
            "surface": 3956,
            "carbon_emission": 279400,
            "address": "79 Tennessee Way",
            "postcode": 15489,
            "city": "Xincheng"
        },
        {
            "id": 33,
            "name": "Jacobson-Yundt",
            "surface": 3602,
            "carbon_emission": 100054,
            "address": "46279 Crownhardt Place",
            "postcode": "798 45",
            "city": "Seč"
        },
        {
            "id": 34,
            "name": "Konopelski, Flatley and Jones",
            "surface": 3242,
            "carbon_emission": 176814,
            "address": "526 Riverside Parkway",
            "postcode": "28410",
            "city": "Wilmington"
        },
        {
            "id": 35,
            "name": "Rohan Inc",
            "surface": 4096,
            "carbon_emission": 337255,
            "address": "389 Dakota Crossing",
            "postcode": "21006",
            "city": "Monjas"
        },
        {
            "id": 36,
            "name": "Greenfelder-Kertzmann",
            "surface": 1878,
            "carbon_emission": 440929,
            "address": "83 Merry Crossing",
            "postcode": 15489,
            "city": "Serh"
        },
        {
            "id": 37,
            "name": "Hammes-Nader",
            "surface": 1187,
            "carbon_emission": 366798,
            "address": "144 Bartillon Court",
            "postcode": "673-1236",
            "city": "Sandachō"
        },
        {
            "id": 38,
            "name": "Grady, D'Amore and Bergnaum",
            "surface": 1032,
            "carbon_emission": 321144,
            "address": "77 Little Fleur Pass",
            "postcode": "14790-000",
            "city": "Guaíra"
        },
        {
            "id": 39,
            "name": "Gorczany, Jerde and Corkery",
            "surface": 2812,
            "carbon_emission": 240974,
            "address": "6 Blaine Court",
            "postcode": 15489,
            "city": "Pergan"
        },
        {
            "id": 40,
            "name": "Gerhold Group",
            "surface": 4489,
            "carbon_emission": 238185,
            "address": "5090 Eastlawn Plaza",
            "postcode": 15489,
            "city": "Parengan"
        },
        {
            "id": 41,
            "name": "Willms-Murray",
            "surface": 4526,
            "carbon_emission": 118221,
            "address": "42 Thackeray Pass",
            "postcode": 15489,
            "city": "Meiyuan Xincun"
        },
        {
            "id": 42,
            "name": "Nicolas, Collins and Hoeger",
            "surface": 2645,
            "carbon_emission": 396914,
            "address": "20196 Prairieview Crossing",
            "postcode": 15489,
            "city": "West End"
        },
        {
            "id": 43,
            "name": "Swaniawski Inc",
            "surface": 1868,
            "carbon_emission": 335360,
            "address": "32 Montana Place",
            "postcode": "66-008",
            "city": "Świdnica"
        },
        {
            "id": 44,
            "name": "Funk-Hudson",
            "surface": 1831,
            "carbon_emission": 389761,
            "address": "9242 Jay Lane",
            "postcode": "38-713",
            "city": "Lutowiska"
        },
        {
            "id": 45,
            "name": "Schroeder-Wilderman",
            "surface": 3139,
            "carbon_emission": 354316,
            "address": "58085 Clyde Gallagher Road",
            "postcode": 15489,
            "city": "Yihe"
        },
        {
            "id": 46,
            "name": "Torphy-Kirlin",
            "surface": 2760,
            "carbon_emission": 448575,
            "address": "7 Bonner Pass",
            "postcode": "714-1405",
            "city": "Uto"
        },
        {
            "id": 47,
            "name": "Kunze, Quigley and Kiehn",
            "surface": 3543,
            "carbon_emission": 241748,
            "address": "258 Farragut Park",
            "postcode": "F94",
            "city": "Bundoran"
        },
        {
            "id": 48,
            "name": "Jerde and Sons",
            "surface": 1667,
            "carbon_emission": 138679,
            "address": "681 Di Loreto Avenue",
            "postcode": 15489,
            "city": "Pilar"
        },
        {
            "id": 49,
            "name": "Wuckert, Shields and Pagac",
            "surface": 1724,
            "carbon_emission": 197174,
            "address": "421 Swallow Way",
            "postcode": "4803",
            "city": "Baras"
        },
        {
            "id": 50,
            "name": "Padberg-O'Hara",
            "surface": 1717,
            "carbon_emission": 106793,
            "address": "5509 Forster Alley",
            "postcode": 15489,
            "city": "Biny Selo"
        },
        {
            "id": 51,
            "name": "Schoen, Schaefer and Abernathy",
            "surface": 4904,
            "carbon_emission": 490272,
            "address": "9 Mockingbird Hill",
            "postcode": "4501",
            "city": "Anuling"
        },
        {
            "id": 52,
            "name": "Beatty-MacGyver",
            "surface": 1590,
            "carbon_emission": 303092,
            "address": "10954 Merchant Parkway",
            "postcode": 15489,
            "city": "Dongshentou"
        },
        {
            "id": 53,
            "name": "Kautzer-Weissnat",
            "surface": 4832,
            "carbon_emission": 222727,
            "address": "72 Main Place",
            "postcode": "5121",
            "city": "Hoopstad"
        },
        {
            "id": 54,
            "name": "Homenick-Rau",
            "surface": 1074,
            "carbon_emission": 324166,
            "address": "33 Melrose Point",
            "postcode": "51480",
            "city": "Pasrūr"
        },
        {
            "id": 55,
            "name": "Tromp, Greenfelder and Sauer",
            "surface": 4745,
            "carbon_emission": 246075,
            "address": "0 Service Park",
            "postcode": 15489,
            "city": "Haiyanmiao"
        },
        {
            "id": 56,
            "name": "Strosin Group",
            "surface": 3269,
            "carbon_emission": 310688,
            "address": "63 Commercial Plaza",
            "postcode": "97450-000",
            "city": "Cacequi"
        },
        {
            "id": 57,
            "name": "Gibson, Senger and Schroeder",
            "surface": 1628,
            "carbon_emission": 109162,
            "address": "7019 Vahlen Plaza",
            "postcode": "6040-104",
            "city": "Gavião"
        },
        {
            "id": 58,
            "name": "Crona, Weimann and Beahan",
            "surface": 3070,
            "carbon_emission": 454971,
            "address": "842 Roth Hill",
            "postcode": "617724",
            "city": "Altuf’yevskiy"
        },
        {
            "id": 59,
            "name": "Walker-Kovacek",
            "surface": 1339,
            "carbon_emission": 191791,
            "address": "01507 Monument Circle",
            "postcode": "191049",
            "city": "Santander de Quilichao"
        },
        {
            "id": 60,
            "name": "Ruecker and Sons",
            "surface": 1707,
            "carbon_emission": 318391,
            "address": "019 Helena Drive",
            "postcode": "62-410",
            "city": "Zagórów"
        },
        {
            "id": 61,
            "name": "Leffler LLC",
            "surface": 4932,
            "carbon_emission": 449744,
            "address": "57 Mosinee Terrace",
            "postcode": "8600",
            "city": "Yambol"
        },
        {
            "id": 62,
            "name": "Zemlak and Sons",
            "surface": 3536,
            "carbon_emission": 193873,
            "address": "39205 Marquette Center",
            "postcode": 15489,
            "city": "Baoping"
        },
        {
            "id": 63,
            "name": "Christiansen-O'Connell",
            "surface": 1386,
            "carbon_emission": 397431,
            "address": "497 Sugar Crossing",
            "postcode": "26-510",
            "city": "Chlewiska"
        },
        {
            "id": 64,
            "name": "Hammes-Beatty",
            "surface": 3059,
            "carbon_emission": 196835,
            "address": "2742 Bonner Center",
            "postcode": "692425",
            "city": "Gornorechenskiy"
        },
        {
            "id": 65,
            "name": "Smitham, Rosenbaum and Kassulke",
            "surface": 3685,
            "carbon_emission": 167061,
            "address": "88465 Dawn Parkway",
            "postcode": "61825",
            "city": "Champaign"
        },
        {
            "id": 66,
            "name": "Hoeger, Mills and Marquardt",
            "surface": 1015,
            "carbon_emission": 369352,
            "address": "26 Hauk Pass",
            "postcode": 15489,
            "city": "Pavlodar"
        },
        {
            "id": 67,
            "name": "Breitenberg Inc",
            "surface": 2414,
            "carbon_emission": 264650,
            "address": "27 Southridge Terrace",
            "postcode": 15489,
            "city": "Kalunan"
        },
        {
            "id": 68,
            "name": "Waelchi, Daugherty and Ullrich",
            "surface": 1377,
            "carbon_emission": 190837,
            "address": "967 Forster Parkway",
            "postcode": 15489,
            "city": "Qiongshan"
        },
        {
            "id": 69,
            "name": "Medhurst-Hansen",
            "surface": 3873,
            "carbon_emission": 313803,
            "address": "670 Crownhardt Way",
            "postcode": "76-002",
            "city": "Łazy"
        },
        {
            "id": 70,
            "name": "Williamson, Predovic and Grady",
            "surface": 1245,
            "carbon_emission": 265977,
            "address": "99 Maryland Alley",
            "postcode": 15489,
            "city": "Jiuhua"
        },
        {
            "id": 71,
            "name": "Strosin-Moore",
            "surface": 1974,
            "carbon_emission": 211080,
            "address": "840 Haas Drive",
            "postcode": 15489,
            "city": "Xiguantun Muguzu Manzuxiang"
        },
        {
            "id": 72,
            "name": "Nader, McCullough and Jaskolski",
            "surface": 4809,
            "carbon_emission": 119425,
            "address": "6404 Spenser Road",
            "postcode": 15489,
            "city": "Imrīsh"
        },
        {
            "id": 73,
            "name": "Nader-Bauch",
            "surface": 3509,
            "carbon_emission": 464599,
            "address": "432 Lillian Way",
            "postcode": "17014 CEDEX 1",
            "city": "La Rochelle"
        },
        {
            "id": 74,
            "name": "Kuhic Group",
            "surface": 2287,
            "carbon_emission": 323832,
            "address": "00346 Coleman Park",
            "postcode": "2436",
            "city": "Binalonan"
        },
        {
            "id": 75,
            "name": "Pacocha, Kuhn and Terry",
            "surface": 2324,
            "carbon_emission": 200187,
            "address": "101 Dayton Drive",
            "postcode": 15489,
            "city": "Miaoxi"
        },
        {
            "id": 76,
            "name": "Von-Parisian",
            "surface": 4764,
            "carbon_emission": 392135,
            "address": "500 Lotheville Hill",
            "postcode": 15489,
            "city": "Furongqiao"
        },
        {
            "id": 77,
            "name": "Macejkovic and Sons",
            "surface": 2750,
            "carbon_emission": 244957,
            "address": "3 Talisman Parkway",
            "postcode": "3405-425",
            "city": "Seixo da Beira"
        },
        {
            "id": 78,
            "name": "Beatty-Cummerata",
            "surface": 1268,
            "carbon_emission": 440839,
            "address": "62 Rigney Center",
            "postcode": 15489,
            "city": "Taquile"
        },
        {
            "id": 79,
            "name": "Jenkins-Effertz",
            "surface": 3080,
            "carbon_emission": 176376,
            "address": "6 Northport Street",
            "postcode": 15489,
            "city": "Olo"
        },
        {
            "id": 80,
            "name": "Graham, Veum and Nienow",
            "surface": 1559,
            "carbon_emission": 368653,
            "address": "5987 Rowland Drive",
            "postcode": 15489,
            "city": "Simbal"
        },
        {
            "id": 81,
            "name": "Predovic Group",
            "surface": 2981,
            "carbon_emission": 490674,
            "address": "3811 Pepper Wood Road",
            "postcode": 15489,
            "city": "Shentong"
        },
        {
            "id": 82,
            "name": "Osinski-Kunze",
            "surface": 2197,
            "carbon_emission": 211157,
            "address": "00260 Bellgrove Junction",
            "postcode": "46160",
            "city": "Khao Wong"
        },
        {
            "id": 83,
            "name": "Rohan, Robel and Reilly",
            "surface": 1551,
            "carbon_emission": 402589,
            "address": "2195 Leroy Plaza",
            "postcode": 15489,
            "city": "Jinsha"
        },
        {
            "id": 84,
            "name": "Jakubowski, Koepp and Wolff",
            "surface": 3611,
            "carbon_emission": 329277,
            "address": "39232 Northview Circle",
            "postcode": 15489,
            "city": "Longtang"
        },
        {
            "id": 85,
            "name": "Schmidt Inc",
            "surface": 2551,
            "carbon_emission": 258184,
            "address": "4382 Eliot Center",
            "postcode": 15489,
            "city": "Zhangguanying"
        },
        {
            "id": 86,
            "name": "Bayer LLC",
            "surface": 4872,
            "carbon_emission": 281180,
            "address": "8620 Clyde Gallagher Plaza",
            "postcode": 15489,
            "city": "Huaqiao"
        },
        {
            "id": 87,
            "name": "Satterfield-Wolf",
            "surface": 4478,
            "carbon_emission": 320758,
            "address": "977 Sheridan Terrace",
            "postcode": 15489,
            "city": "Housuo"
        },
        {
            "id": 88,
            "name": "Stanton LLC",
            "surface": 1039,
            "carbon_emission": 207168,
            "address": "085 Coolidge Place",
            "postcode": 15489,
            "city": "Xi’an"
        },
        {
            "id": 89,
            "name": "Parisian Group",
            "surface": 3466,
            "carbon_emission": 167668,
            "address": "1768 Milwaukee Center",
            "postcode": 15489,
            "city": "Kerbuyan"
        },
        {
            "id": 90,
            "name": "Hilll, Macejkovic and Hodkiewicz",
            "surface": 1700,
            "carbon_emission": 153898,
            "address": "89955 Katie Hill",
            "postcode": "1624",
            "city": "Hoorn"
        },
        {
            "id": 91,
            "name": "Senger-Crooks",
            "surface": 4411,
            "carbon_emission": 482260,
            "address": "997 Badeau Court",
            "postcode": 15489,
            "city": "Song’ao"
        },
        {
            "id": 92,
            "name": "Hessel Group",
            "surface": 1323,
            "carbon_emission": 191983,
            "address": "73 Bashford Alley",
            "postcode": "6540",
            "city": "Merida"
        },
        {
            "id": 93,
            "name": "Collier-Hoppe",
            "surface": 1633,
            "carbon_emission": 445814,
            "address": "4006 Hallows Way",
            "postcode": "763547",
            "city": "Palmira"
        },
        {
            "id": 94,
            "name": "Tromp Inc",
            "surface": 1429,
            "carbon_emission": 215791,
            "address": "73958 Heffernan Street",
            "postcode": 15489,
            "city": "Nan’an"
        },
        {
            "id": 95,
            "name": "Little Group",
            "surface": 2636,
            "carbon_emission": 395796,
            "address": "9 Sachs Pass",
            "postcode": "67160",
            "city": "Si Khoraphum"
        },
        {
            "id": 96,
            "name": "Rogahn and Sons",
            "surface": 4458,
            "carbon_emission": 233634,
            "address": "450 Wayridge Alley",
            "postcode": "659826",
            "city": "Kosikha"
        },
        {
            "id": 97,
            "name": "Moore Inc",
            "surface": 3843,
            "carbon_emission": 137845,
            "address": "052 Parkside Terrace",
            "postcode": "6406",
            "city": "Victoria"
        },
        {
            "id": 98,
            "name": "Stamm, Blanda and Powlowski",
            "surface": 4428,
            "carbon_emission": 201377,
            "address": "7686 Golf Course Plaza",
            "postcode": 15489,
            "city": "Krajan"
        },
        {
            "id": 99,
            "name": "Champlin LLC",
            "surface": 3732,
            "carbon_emission": 373233,
            "address": "13 Calypso Parkway",
            "postcode": "5611",
            "city": "Dungon"
        },
        {
            "id": 100,
            "name": "Yost Group",
            "surface": 3710,
            "carbon_emission": 244472,
            "address": "45498 Debs Drive",
            "postcode": 15489,
            "city": "Terpsithéa"
        }
    ]
}
